{
  "type": "FeatureCollection",
  "features": [
    {
      "type": "Feature",
      "properties": {
        "norad_id": 54741,
        "name": "GALAXY 35 (G-35)",
        "group": "intelsat",
        "lat": 0.041669596346246195,
        "lon": 99.94986841992282,
        "alt_km": 35795.35471410535,
        "timestamp": "2025-12-19T06:59:43.571985+00:00",
        "meta_object_name": "GALAXY 35 (G-35)",
        "meta_object_id": "2022-170A",
        "meta_epoch": "2025-12-18T19:42:02.811168",
        "meta_mean_motion": 1.00270854,
        "meta_eccentricity": 0.0002139,
        "meta_inclination": 0.0202,
        "meta_ra_of_asc_node": 30.723,
        "meta_arg_of_pericenter": 242.1308,
        "meta_mean_anomaly": 17.228,
        "meta_ephemeris_type": 0,
        "meta_classification_type": "U",
        "meta_norad_cat_id": 54741,
        "meta_element_set_no": 999,
        "meta_rev_at_epoch": 1108,
        "meta_bstar": 0,
        "meta_mean_motion_dot": 0,
        "meta_mean_motion_ddot": 0,
        "tle_line1": "1 54741U 22170A   25352.82086587  .00000000  00000+0  00000+0 0  9992",
        "tle_line2": "2 54741   0.0202  30.7230 0002139 242.1308  17.2280  1.00270854 11084"
      },
      "geometry": {
        "type": "Point",
        "coordinates": [
          99.94986841992282,
          0.041669596346246195
        ]
      }
    },
    {
      "type": "Feature",
      "properties": {
        "norad_id": 54742,
        "name": "GALAXY 36 (G-36)",
        "group": "intelsat",
        "lat": 0.0391468542626293,
        "lon": 104.04370752155653,
        "alt_km": 35787.465577930394,
        "timestamp": "2025-12-19T06:59:43.571996+00:00",
        "meta_object_name": "GALAXY 36 (G-36)",
        "meta_object_id": "2022-170B",
        "meta_epoch": "2025-12-18T14:35:04.267392",
        "meta_mean_motion": 1.00266895,
        "meta_eccentricity": 1.786e-05,
        "meta_inclination": 0.0157,
        "meta_ra_of_asc_node": 348.9818,
        "meta_arg_of_pericenter": 26.5322,
        "meta_mean_anomaly": 201.7131,
        "meta_ephemeris_type": 0,
        "meta_classification_type": "U",
        "meta_norad_cat_id": 54742,
        "meta_element_set_no": 999,
        "meta_rev_at_epoch": 1096,
        "meta_bstar": 0,
        "meta_mean_motion_dot": 0,
        "meta_mean_motion_ddot": 0,
        "tle_line1": "1 54742U 22170B   25352.60768828  .00000000  00000+0  00000+0 0  9994",
        "tle_line2": "2 54742   0.0157 348.9818 0000178  26.5322 201.7131  1.00266895 10962"
      },
      "geometry": {
        "type": "Point",
        "coordinates": [
          104.04370752155653,
          0.0391468542626293
        ]
      }
    },
    {
      "type": "Feature",
      "properties": {
        "norad_id": 57493,
        "name": "GALAXY 37 (G-37)",
        "group": "intelsat",
        "lat": 0.04231754219686101,
        "lon": 66.07122170079553,
        "alt_km": 35793.79470069019,
        "timestamp": "2025-12-19T06:59:43.572008+00:00",
        "meta_object_name": "GALAXY 37 (G-37)",
        "meta_object_id": "2023-112A",
        "meta_epoch": "2025-12-18T22:57:51.556608",
        "meta_mean_motion": 1.00270432,
        "meta_eccentricity": 0.00019137,
        "meta_inclination": 0.0157,
        "meta_ra_of_asc_node": 342.5704,
        "meta_arg_of_pericenter": 288.3403,
        "meta_mean_anomaly": 34.3674,
        "meta_ephemeris_type": 0,
        "meta_classification_type": "U",
        "meta_norad_cat_id": 57493,
        "meta_element_set_no": 999,
        "meta_rev_at_epoch": 873,
        "meta_bstar": 0,
        "meta_mean_motion_dot": 7.3e-07,
        "meta_mean_motion_ddot": 0,
        "tle_line1": "1 57493U 23112A   25352.95684672  .00000073  00000+0  00000+0 0  9999",
        "tle_line2": "2 57493   0.0157 342.5704 0001913 288.3403  34.3674  1.00270432  8734"
      },
      "geometry": {
        "type": "Point",
        "coordinates": [
          66.07122170079553,
          0.04231754219686101
        ]
      }
    }
  ]
}